[{"OBJECT_NAME":"ONEWEB-0372","OBJECT_ID":"2021-090V","EPOCH":"2025-10-03T13:45:14.269248","MEAN_MOTION":13.20772964,"ECCENTRICITY":0.00018282,"INCLINATION":87.9236,"RA_OF_ASC_NODE":325.6167,"ARG_OF_PERICENTER":99.2295,"MEAN_ANOMALY":260.9045,"EPHEMERIS_TYPE":0,"CLASSIFICATION_TYPE":"U","NORAD_CAT_ID":49298,"ELEMENT_SET_NO":999,"REV_AT_EPOCH":19596,"BSTAR":-9.6710021e-5,"MEAN_MOTION_DOT":-2.6e-7,"MEAN_MOTION_DDOT":0},{"OBJECT_NAME":"ONEWEB-0373","OBJECT_ID":"2021-090W","EPOCH":"2025-10-03T01:40:26.996160","MEAN_MOTION":13.20772889,"ECCENTRICITY":0.00019669,"INCLINATION":87.9239,"RA_OF_ASC_NODE":325.7305,"ARG_OF_PERICENTER":95.0784,"MEAN_ANOMALY":265.0574,"EPHEMERIS_TYPE":0,"CLASSIFICATION_TYPE":"U","NORAD_CAT_ID":49299,"ELEMENT_SET_NO":999,"REV_AT_EPOCH":19708,"BSTAR":0.00026817804,"MEAN_MOTION_DOT":1.22e-6,"MEAN_MOTION_DDOT":0},{"OBJECT_NAME":"ONEWEB-0374","OBJECT_ID":"2021-090X","EPOCH":"2025-10-03T14:26:35.798208","MEAN_MOTION":13.14503565,"ECCENTRICITY":0.00016588,"INCLINATION":87.9056,"RA_OF_ASC_NODE":340.8004,"ARG_OF_PERICENTER":82.1804,"MEAN_ANOMALY":277.9514,"EPHEMERIS_TYPE":0,"CLASSIFICATION_TYPE":"U","NORAD_CAT_ID":49300,"ELEMENT_SET_NO":999,"REV_AT_EPOCH":19385,"BSTAR":-0.00038516237,"MEAN_MOTION_DOT":-1.3e-6,"MEAN_MOTION_DDOT":0},{"OBJECT_NAME":"ONEWEB-0375","OBJECT_ID":"2021-090Y","EPOCH":"2025-10-03T14:05:54.011616","MEAN_MOTION":13.20772542,"ECCENTRICITY":0.00021033,"INCLINATION":87.9239,"RA_OF_ASC_NODE":325.6074,"ARG_OF_PERICENTER":80.5341,"MEAN_ANOMALY":279.603,"EPHEMERIS_TYPE":0,"CLASSIFICATION_TYPE":"U","NORAD_CAT_ID":49301,"ELEMENT_SET_NO":999,"REV_AT_EPOCH":19665,"BSTAR":0.00013740386,"MEAN_MOTION_DOT":6.9e-7,"MEAN_MOTION_DDOT":0},{"OBJECT_NAME":"ONEWEB-0376","OBJECT_ID":"2021-090Z","EPOCH":"2025-10-03T14:58:56.076960","MEAN_MOTION":13.19725489,"ECCENTRICITY":0.00017427,"INCLINATION":87.9284,"RA_OF_ASC_NODE":355.9799,"ARG_OF_PERICENTER":106.7554,"MEAN_ANOMALY":253.377,"EPHEMERIS_TYPE":0,"CLASSIFICATION_TYPE":"U","NORAD_CAT_ID":49302,"ELEMENT_SET_NO":999,"REV_AT_EPOCH":19261,"BSTAR":-3.8185479e-5,"MEAN_MOTION_DOT":-2.0e-8,"MEAN_MOTION_DDOT":0},{"OBJECT_NAME":"ONEWEB-0377","OBJECT_ID":"2021-090AA","EPOCH":"2025-10-03T13:45:38.419776","MEAN_MOTION":13.20773077,"ECCENTRICITY":0.00021567,"INCLINATION":87.9242,"RA_OF_ASC_NODE":325.6061,"ARG_OF_PERICENTER":95.8629,"MEAN_ANOMALY":264.275,"EPHEMERIS_TYPE":0,"CLASSIFICATION_TYPE":"U","NORAD_CAT_ID":49303,"ELEMENT_SET_NO":999,"REV_AT_EPOCH":19664,"BSTAR":-6.6368363e-5,"MEAN_MOTION_DOT":-1.4e-7,"MEAN_MOTION_DDOT":0},{"OBJECT_NAME":"ONEWEB-0378","OBJECT_ID":"2021-090AB","EPOCH":"2025-10-03T01:33:49.024800","MEAN_MOTION":13.20770716,"ECCENTRICITY":0.00019191,"INCLINATION":87.9254,"RA_OF_ASC_NODE":325.7214,"ARG_OF_PERICENTER":92.7967,"MEAN_ANOMALY":267.3386,"EPHEMERIS_TYPE":0,"CLASSIFICATION_TYPE":"U","NORAD_CAT_ID":49304,"ELEMENT_SET_NO":999,"REV_AT_EPOCH":19584,"BSTAR":0.00021125968,"MEAN_MOTION_DOT":9.9e-7,"MEAN_MOTION_DDOT":0},{"OBJECT_NAME":"ONEWEB-0379","OBJECT_ID":"2021-090AC","EPOCH":"2025-10-03T14:19:43.427424","MEAN_MOTION":13.14502563,"ECCENTRICITY":0.00017525,"INCLINATION":87.9064,"RA_OF_ASC_NODE":340.8096,"ARG_OF_PERICENTER":98.1479,"MEAN_ANOMALY":261.9849,"EPHEMERIS_TYPE":0,"CLASSIFICATION_TYPE":"U","NORAD_CAT_ID":49305,"ELEMENT_SET_NO":999,"REV_AT_EPOCH":19385,"BSTAR":-0.00044380566,"MEAN_MOTION_DOT":-1.52e-6,"MEAN_MOTION_DDOT":0},{"OBJECT_NAME":"ONEWEB-0380","OBJECT_ID":"2021-090AD","EPOCH":"2025-10-03T05:48:29.124000","MEAN_MOTION":13.19727551,"ECCENTRICITY":0.00020041,"INCLINATION":87.9276,"RA_OF_ASC_NODE":356.082,"ARG_OF_PERICENTER":96.345,"MEAN_ANOMALY":263.7911,"EPHEMERIS_TYPE":0,"CLASSIFICATION_TYPE":"U","NORAD_CAT_ID":49306,"ELEMENT_SET_NO":999,"REV_AT_EPOCH":19253,"BSTAR":0.00036172446,"MEAN_MOTION_DOT":1.58e-6,"MEAN_MOTION_DDOT":0},{"OBJECT_NAME":"ONEWEB-0381","OBJECT_ID":"2021-090AE","EPOCH":"2025-10-03T13:40:54.983712","MEAN_MOTION":13.20771784,"ECCENTRICITY":0.00019858,"INCLINATION":87.9237,"RA_OF_ASC_NODE":325.6143,"ARG_OF_PERICENTER":89.307,"MEAN_ANOMALY":270.8291,"EPHEMERIS_TYPE":0,"CLASSIFICATION_TYPE":"U","NORAD_CAT_ID":49307,"ELEMENT_SET_NO":999,"REV_AT_EPOCH":19595,"BSTAR":-6.9283281e-5,"MEAN_MOTION_DOT":-1.5e-7,"MEAN_MOTION_DDOT":0},{"OBJECT_NAME":"ONEWEB-0382","OBJECT_ID":"2021-090AF","EPOCH":"2025-10-03T09:44:31.735968","MEAN_MOTION":13.20773317,"ECCENTRICITY":0.00018428,"INCLINATION":87.9241,"RA_OF_ASC_NODE":325.638,"ARG_OF_PERICENTER":87.306,"MEAN_ANOMALY":272.8284,"EPHEMERIS_TYPE":0,"CLASSIFICATION_TYPE":"U","NORAD_CAT_ID":49308,"ELEMENT_SET_NO":999,"REV_AT_EPOCH":19592,"BSTAR":0.00017752299,"MEAN_MOTION_DOT":8.5e-7,"MEAN_MOTION_DDOT":0},{"OBJECT_NAME":"ONEWEB-0383","OBJECT_ID":"2021-090AG","EPOCH":"2025-10-03T10:31:21.604800","MEAN_MOTION":13.14501139,"ECCENTRICITY":0.00017623,"INCLINATION":87.907,"RA_OF_ASC_NODE":340.8226,"ARG_OF_PERICENTER":96.7542,"MEAN_ANOMALY":263.3788,"EPHEMERIS_TYPE":0,"CLASSIFICATION_TYPE":"U","NORAD_CAT_ID":49309,"ELEMENT_SET_NO":999,"REV_AT_EPOCH":19386,"BSTAR":-0.00044461069,"MEAN_MOTION_DOT":-1.52e-6,"MEAN_MOTION_DDOT":0},{"OBJECT_NAME":"ONEWEB-0384","OBJECT_ID":"2021-090AH","EPOCH":"2025-10-03T02:20:37.423968","MEAN_MOTION":13.20793067,"ECCENTRICITY":0.00017192,"INCLINATION":87.926,"RA_OF_ASC_NODE":325.7274,"ARG_OF_PERICENTER":81.5199,"MEAN_ANOMALY":278.6129,"EPHEMERIS_TYPE":0,"CLASSIFICATION_TYPE":"U","NORAD_CAT_ID":49310,"ELEMENT_SET_NO":999,"REV_AT_EPOCH":19589,"BSTAR":0.00033298287,"MEAN_MOTION_DOT":1.48e-6,"MEAN_MOTION_DDOT":0},{"OBJECT_NAME":"ONEWEB-0385","OBJECT_ID":"2021-090AJ","EPOCH":"2025-10-03T13:11:22.234560","MEAN_MOTION":13.20771199,"ECCENTRICITY":0.00018696,"INCLINATION":87.9234,"RA_OF_ASC_NODE":325.6202,"ARG_OF_PERICENTER":92.4574,"MEAN_ANOMALY":267.6773,"EPHEMERIS_TYPE":0,"CLASSIFICATION_TYPE":"U","NORAD_CAT_ID":49311,"ELEMENT_SET_NO":999,"REV_AT_EPOCH":19592,"BSTAR":7.6352104e-5,"MEAN_MOTION_DOT":4.4e-7,"MEAN_MOTION_DDOT":0},{"OBJECT_NAME":"ONEWEB-0386","OBJECT_ID":"2021-090AK","EPOCH":"2025-10-03T13:36:20.655936","MEAN_MOTION":13.20773203,"ECCENTRICITY":0.00017776,"INCLINATION":87.9245,"RA_OF_ASC_NODE":325.5943,"ARG_OF_PERICENTER":88.8016,"MEAN_ANOMALY":271.3321,"EPHEMERIS_TYPE":0,"CLASSIFICATION_TYPE":"U","NORAD_CAT_ID":49312,"ELEMENT_SET_NO":999,"REV_AT_EPOCH":19594,"BSTAR":0.00018570109,"MEAN_MOTION_DOT":8.8e-7,"MEAN_MOTION_DDOT":0},{"OBJECT_NAME":"ONEWEB-0387","OBJECT_ID":"2021-090AL","EPOCH":"2025-10-03T09:35:26.414592","MEAN_MOTION":13.20773511,"ECCENTRICITY":0.0002146,"INCLINATION":87.9236,"RA_OF_ASC_NODE":325.6793,"ARG_OF_PERICENTER":90.1634,"MEAN_ANOMALY":269.9745,"EPHEMERIS_TYPE":0,"CLASSIFICATION_TYPE":"U","NORAD_CAT_ID":49313,"ELEMENT_SET_NO":999,"REV_AT_EPOCH":19592,"BSTAR":0.00027798553,"MEAN_MOTION_DOT":1.26e-6,"MEAN_MOTION_DDOT":0}]
