ONEWEB-0372             
1 49298U 21090V   25276.57308182 -.00000026  00000+0 -96710-4 0  9996
2 49298  87.9236 325.6167 0001828  99.2295 260.9045 13.20772964195961
ONEWEB-0373             
1 49299U 21090W   25276.06975690  .00000122  00000+0  26818-3 0  9991
2 49299  87.9239 325.7305 0001966  95.0784 265.0574 13.20772889197084
ONEWEB-0374             
1 49300U 21090X   25276.60180322 -.00000130  00000+0 -38516-3 0  9993
2 49300  87.9056 340.8004 0001658  82.1804 277.9514 13.14503565193859
ONEWEB-0375             
1 49301U 21090Y   25276.58743069  .00000069  00000+0  13740-3 0  9995
2 49301  87.9239 325.6074 0002103  80.5341 279.6030 13.20772542196658
ONEWEB-0376             
1 49302U 21090Z   25276.62426015 -.00000002  00000+0 -38185-4 0  9990
2 49302  87.9284 355.9799 0001742 106.7554 253.3770 13.19725489192612
ONEWEB-0377             
1 49303U 21090AA  25276.57336134 -.00000014  00000+0 -66368-4 0  9994
2 49303  87.9242 325.6061 0002156  95.8629 264.2750 13.20773077196648
ONEWEB-0378             
1 49304U 21090AB  25276.06515075  .00000099  00000+0  21126-3 0  9995
2 49304  87.9254 325.7214 0001919  92.7967 267.3386 13.20770716195847
ONEWEB-0379             
1 49305U 21090AC  25276.59703041 -.00000152  00000+0 -44381-3 0  9996
2 49305  87.9064 340.8096 0001752  98.1479 261.9849 13.14502563193855
ONEWEB-0380             
1 49306U 21090AD  25276.24200375  .00000158  00000+0  36172-3 0  9994
2 49306  87.9276 356.0820 0002004  96.3450 263.7911 13.19727551192530
ONEWEB-0381             
1 49307U 21090AE  25276.57008083 -.00000015  00000+0 -69283-4 0  9997
2 49307  87.9237 325.6143 0001985  89.3070 270.8291 13.20771784195953
ONEWEB-0382             
1 49308U 21090AF  25276.40592287  .00000085  00000+0  17752-3 0  9992
2 49308  87.9241 325.6380 0001842  87.3060 272.8284 13.20773317195926
ONEWEB-0383             
1 49309U 21090AG  25276.43844450 -.00000152  00000+0 -44461-3 0  9992
2 49309  87.9070 340.8226 0001762  96.7542 263.3788 13.14501139193864
ONEWEB-0384             
1 49310U 21090AH  25276.09765537  .00000148  00000+0  33298-3 0  9993
2 49310  87.9260 325.7274 0001719  81.5199 278.6129 13.20793067195897
ONEWEB-0385             
1 49311U 21090AJ  25276.54956290  .00000044  00000+0  76352-4 0  9996
2 49311  87.9234 325.6202 0001869  92.4574 267.6773 13.20771199195922
ONEWEB-0386             
1 49312U 21090AK  25276.56690574  .00000088  00000+0  18570-3 0  9994
2 49312  87.9245 325.5943 0001777  88.8016 271.3321 13.20773203195945
ONEWEB-0387             
1 49313U 21090AL  25276.39961128  .00000126  00000+0  27799-3 0  9998
2 49313  87.9236 325.6793 0002146  90.1634 269.9745 13.20773511195926
